KUIPER-00269            
1 68587U 26072Q   26099.50209348  .00000642  00000+0  27693-4 0  9990
2 68587  51.8732 149.0799 0004720 103.3397 256.8116 15.37536743   812
