{
  "norad_id": 68587,
  "name": "KUIPER-00269",
  "history": [
    {
      "epoch": "2026-04-09T12:03:00.876672Z",
      "apogee_km": 456.6205162124361,
      "perigee_km": 450.17154902964194,
      "latitude_deg": -1.9475806949051097e-05,
      "longitude_deg": 130.57686261837716,
      "height_km": 454.89607486493924,
      "semi_major_axis_km": 6831.533032621039,
      "eccentricity": 0.000472,
      "inclination_deg": 51.8732,
      "raan_deg": 149.0799,
      "arg_perigee_deg": 103.3397,
      "mean_anomaly_deg": 256.8116,
      "mean_motion_rev_day": 15.37536743
    }
  ]
}